{
  "type": "FeatureCollection",
  "features": [
    {
      "type": "Feature",
      "properties": {
        "norad_id": 39227,
        "name": "ARIRANG-5 (KOMPSAT-5)",
        "group": "resource",
        "lat": -56.191583067354365,
        "lon": -171.80228424700252,
        "alt_km": 560.3099602396196,
        "timestamp": "2025-12-18T10:51:25.446165+00:00",
        "meta_object_name": "ARIRANG-5 (KOMPSAT-5)",
        "meta_object_id": "2013-042A",
        "meta_epoch": "2025-12-17T23:56:11.447808",
        "meta_mean_motion": 15.04529853,
        "meta_eccentricity": 0.000345,
        "meta_inclination": 97.6146,
        "meta_ra_of_asc_node": 176.2256,
        "meta_arg_of_pericenter": 41.3003,
        "meta_mean_anomaly": 318.8484,
        "meta_ephemeris_type": 0,
        "meta_classification_type": "U",
        "meta_norad_cat_id": 39227,
        "meta_element_set_no": 999,
        "meta_rev_at_epoch": 67661,
        "meta_bstar": 0.00018705175,
        "meta_mean_motion_dot": 2.56e-05,
        "meta_mean_motion_ddot": 0,
        "tle_line1": "1 39227U 13042A   25351.99735472  .00002560  00000+0  18705-3 0  9991",
        "tle_line2": "2 39227  97.6146 176.2256 0003450  41.3003 318.8484 15.04529853676614"
      },
      "geometry": {
        "type": "Point",
        "coordinates": [
          -171.80228424700252,
          -56.191583067354365
        ]
      }
    },
    {
      "type": "Feature",
      "properties": {
        "norad_id": 39418,
        "name": "SKYSAT-A",
        "group": "resource",
        "lat": 76.03395925331505,
        "lon": -105.95591644240797,
        "alt_km": 529.9475235444679,
        "timestamp": "2025-12-18T10:51:25.446176+00:00",
        "meta_object_name": "SKYSAT-A",
        "meta_object_id": "2013-066C",
        "meta_epoch": "2025-12-17T16:55:51.552192",
        "meta_mean_motion": 15.11638877,
        "meta_eccentricity": 0.00210458,
        "meta_inclination": 97.4105,
        "meta_ra_of_asc_node": 41.7633,
        "meta_arg_of_pericenter": 218.6292,
        "meta_mean_anomaly": 141.3434,
        "meta_ephemeris_type": 0,
        "meta_classification_type": "U",
        "meta_norad_cat_id": 39418,
        "meta_element_set_no": 999,
        "meta_rev_at_epoch": 66105,
        "meta_bstar": 0.00017971917,
        "meta_mean_motion_dot": 3.006e-05,
        "meta_mean_motion_ddot": 0,
        "tle_line1": "1 39418U 13066C   25351.70545778  .00003006  00000+0  17972-3 0  9997",
        "tle_line2": "2 39418  97.4105  41.7633 0021045 218.6292 141.3434 15.11638877661054"
      },
      "geometry": {
        "type": "Point",
        "coordinates": [
          -105.95591644240797,
          76.03395925331505
        ]
      }
    },
    {
      "type": "Feature",
      "properties": {
        "norad_id": 39419,
        "name": "DUBAISAT-2",
        "group": "resource",
        "lat": 2.267604415242859,
        "lon": 162.98054562283866,
        "alt_km": 547.5886852840058,
        "timestamp": "2025-12-18T10:51:25.446187+00:00",
        "meta_object_name": "DUBAISAT-2",
        "meta_object_id": "2013-066D",
        "meta_epoch": "2025-12-17T22:55:36.367392",
        "meta_mean_motion": 15.0840807,
        "meta_eccentricity": 0.00100285,
        "meta_inclination": 97.4443,
        "meta_ra_of_asc_node": 342.2021,
        "meta_arg_of_pericenter": 302.1879,
        "meta_mean_anomaly": 57.8376,
        "meta_ephemeris_type": 0,
        "meta_classification_type": "U",
        "meta_norad_cat_id": 39419,
        "meta_element_set_no": 999,
        "meta_rev_at_epoch": 65905,
        "meta_bstar": 0.00024682989,
        "meta_mean_motion_dot": 3.782e-05,
        "meta_mean_motion_ddot": 0,
        "tle_line1": "1 39419U 13066D   25351.95528203  .00003782  00000+0  24683-3 0  9997",
        "tle_line2": "2 39419  97.4443 342.2021 0010028 302.1879  57.8376 15.08408070659058"
      },
      "geometry": {
        "type": "Point",
        "coordinates": [
          162.98054562283866,
          2.267604415242859
        ]
      }
    },
    {
      "type": "Feature",
      "properties": {
        "norad_id": 39574,
        "name": "GPM-CORE",
        "group": "resource",
        "lat": -5.892544238930953,
        "lon": -169.2116242977705,
        "alt_km": 437.3743139486678,
        "timestamp": "2025-12-18T10:51:25.446197+00:00",
        "meta_object_name": "GPM-CORE",
        "meta_object_id": "2014-009C",
        "meta_epoch": "2025-12-17T20:53:57.900192",
        "meta_mean_motion": 15.44542537,
        "meta_eccentricity": 0.00095257,
        "meta_inclination": 64.9724,
        "meta_ra_of_asc_node": 195.499,
        "meta_arg_of_pericenter": 247.0583,
        "meta_mean_anomaly": 112.9552,
        "meta_ephemeris_type": 0,
        "meta_classification_type": "U",
        "meta_norad_cat_id": 39574,
        "meta_element_set_no": 999,
        "meta_rev_at_epoch": 66980,
        "meta_bstar": 0.00014428928,
        "meta_mean_motion_dot": 6.493e-05,
        "meta_mean_motion_ddot": 0,
        "tle_line1": "1 39574U 14009C   25351.87080903  .00006493  00000+0  14429-3 0  9997",
        "tle_line2": "2 39574  64.9724 195.4990 0009525 247.0583 112.9552 15.44542537669803"
      },
      "geometry": {
        "type": "Point",
        "coordinates": [
          -169.2116242977705,
          -5.892544238930953
        ]
      }
    },
    {
      "type": "Feature",
      "properties": {
        "norad_id": 39634,
        "name": "SENTINEL-1A",
        "group": "resource",
        "lat": -54.58675285205949,
        "lon": 165.93807252460624,
        "alt_km": 703.5625025266772,
        "timestamp": "2025-12-18T10:51:25.446208+00:00",
        "meta_object_name": "SENTINEL-1A",
        "meta_object_id": "2014-016A",
        "meta_epoch": "2025-12-17T23:54:27.190656",
        "meta_mean_motion": 14.59201383,
        "meta_eccentricity": 0.00012346,
        "meta_inclination": 98.1801,
        "meta_ra_of_asc_node": 357.1605,
        "meta_arg_of_pericenter": 82.0832,
        "meta_mean_anomaly": 278.0508,
        "meta_ephemeris_type": 0,
        "meta_classification_type": "U",
        "meta_norad_cat_id": 39634,
        "meta_element_set_no": 999,
        "meta_rev_at_epoch": 62359,
        "meta_bstar": 4.4560398e-05,
        "meta_mean_motion_dot": 1.64e-06,
        "meta_mean_motion_ddot": 0,
        "tle_line1": "1 39634U 14016A   25351.99614804  .00000164  00000+0  44560-4 0  9997",
        "tle_line2": "2 39634  98.1801 357.1605 0001234  82.0832 278.0508 14.59201383623595"
      },
      "geometry": {
        "type": "Point",
        "coordinates": [
          165.93807252460624,
          -54.58675285205949
        ]
      }
    },
    {
      "type": "Feature",
      "properties": {
        "norad_id": 39731,
        "name": "KAZEOSAT 1",
        "group": "resource",
        "lat": -37.64772390996045,
        "lon": -122.26863045011149,
        "alt_km": 758.5017340859749,
        "timestamp": "2025-12-18T10:51:25.446218+00:00",
        "meta_object_name": "KAZEOSAT 1",
        "meta_object_id": "2014-024A",
        "meta_epoch": "2025-12-17T22:11:32.966304",
        "meta_mean_motion": 14.42065201,
        "meta_eccentricity": 0.00011509,
        "meta_inclination": 98.3433,
        "meta_ra_of_asc_node": 63.7159,
        "meta_arg_of_pericenter": 96.9695,
        "meta_mean_anomaly": 263.1626,
        "meta_ephemeris_type": 0,
        "meta_classification_type": "U",
        "meta_norad_cat_id": 39731,
        "meta_element_set_no": 999,
        "meta_rev_at_epoch": 61243,
        "meta_bstar": 5.3129574e-05,
        "meta_mean_motion_dot": 1.32e-06,
        "meta_mean_motion_ddot": 0,
        "tle_line1": "1 39731U 14024A   25351.92468711  .00000132  00000+0  53130-4 0  9999",
        "tle_line2": "2 39731  98.3433  63.7159 0001150  96.9695 263.1626 14.42065201612434"
      },
      "geometry": {
        "type": "Point",
        "coordinates": [
          -122.26863045011149,
          -37.64772390996045
        ]
      }
    },
    {
      "type": "Feature",
      "properties": {
        "norad_id": 39766,
        "name": "ALOS-2",
        "group": "resource",
        "lat": 29.49488658282676,
        "lon": -88.26514001803274,
        "alt_km": 629.0139843761226,
        "timestamp": "2025-12-18T10:51:25.446229+00:00",
        "meta_object_name": "ALOS-2",
        "meta_object_id": "2014-029A",
        "meta_epoch": "2025-12-17T22:49:07.302144",
        "meta_mean_motion": 14.79473076,
        "meta_eccentricity": 0.00013423,
        "meta_inclination": 97.9225,
        "meta_ra_of_asc_node": 86.7226,
        "meta_arg_of_pericenter": 97.2278,
        "meta_mean_anomaly": 262.9086,
        "meta_ephemeris_type": 0,
        "meta_classification_type": "U",
        "meta_norad_cat_id": 39766,
        "meta_element_set_no": 999,
        "meta_rev_at_epoch": 62478,
        "meta_bstar": 0.00016216806,
        "meta_mean_motion_dot": 1.16e-05,
        "meta_mean_motion_ddot": 0,
        "tle_line1": "1 39766U 14029A   25351.95077896  .00001160  00000+0  16217-3 0  9991",
        "tle_line2": "2 39766  97.9225  86.7226 0001342  97.2278 262.9086 14.79473076624781"
      },
      "geometry": {
        "type": "Point",
        "coordinates": [
          -88.26514001803274,
          29.49488658282676
        ]
      }
    }
  ]
}